ISS OBJECT XW           
1 66910U 98067XW  26049.56002639  .00092839  00000+0  97013-3 0  9997
2 66910  51.6268 162.6597 0003095 350.8549   9.2388 15.63698300 12182
ISS OBJECT XX           
1 66911U 98067XX  26049.55876052  .00149293  00000+0  13339-2 0  9990
2 66911  51.6247 161.8963 0005006 344.8616  15.2229 15.67383765 12181
ISS OBJECT XY           
1 66912U 98067XY  26049.57842374  .00069706  00000+0  83509-3 0  9990
2 66912  51.6296 163.5426 0001202 358.6455   1.4535 15.60296153 12169
ISS OBJECT XZ           
1 67683U 98067XZ  26049.52692982  .00034822  00000+0  60893-3 0  9991
2 67683  51.6321 166.9465 0010346 123.4884 236.7095 15.50249343  1819
GXIBA-1                 
1 67684U 98067YA  26049.58547308  .00062858  00000+0  10466-2 0  9999
2 67684  51.6317 166.5880 0011884 116.3562 243.8649 15.51346875  1828
CORAL                   
1 67685U 98067YB  26049.59026933  .00039745  00000+0  68820-3 0  9994
2 67685  51.6318 166.6193 0012245 119.6221 240.5989 15.50440945  1821
ISS OBJECT YC           
1 67686U 98067YC  26049.52473791  .00043700  00000+0  75108-3 0  9999
2 67686  51.6328 166.9334 0007806  91.8250 268.3633 15.50655569  1816
LEOPARD                 
1 67687U 98067YD  26050.29976546  .00037315  00000+0  64842-3 0  9990
2 67687  51.6326 163.1085 0007807  96.4151 263.7728 15.50418855  1852
ISS OBJECT YE           
1 67688U 98067YE  26050.29854688  .00041007  00000+0  70640-3 0  9999
2 67688  51.6328 163.0998 0007703  94.5540 265.6329 15.50621471  1851
CREW DRAGON 12          
1 67796U 26031A   26049.79608032  .00009878  00000+0  18896-3 0  9999
2 67796  51.6323 165.7431 0010935 112.1599 248.0551 15.48691264   821
